[{"OBJECT_NAME":"FENGYUN 1C DEB","OBJECT_ID":"1999-025ATX","EPOCH":"2026-03-04T19:00:38.223648","MEAN_MOTION":14.3624642,"ECCENTRICITY":0.0085405,"INCLINATION":98.9712,"RA_OF_ASC_NODE":358.1776,"ARG_OF_PERICENTER":72.1021,"MEAN_ANOMALY":288.9454,"EPHEMERIS_TYPE":0,"CLASSIFICATION_TYPE":"U","NORAD_CAT_ID":30761,"ELEMENT_SET_NO":999,"REV_AT_EPOCH":98919,"BSTAR":0.0012032,"MEAN_MOTION_DOT":3.616e-5,"MEAN_MOTION_DDOT":0},{"OBJECT_NAME":"FENGYUN 1C DEB","OBJECT_ID":"1999-025ATY","EPOCH":"2026-03-04T16:47:31.106112","MEAN_MOTION":13.98210421,"ECCENTRICITY":0.0199461,"INCLINATION":98.8825,"RA_OF_ASC_NODE":56.8811,"ARG_OF_PERICENTER":68.2708,"MEAN_ANOMALY":348.4432,"EPHEMERIS_TYPE":0,"CLASSIFICATION_TYPE":"U","NORAD_CAT_ID":30762,"ELEMENT_SET_NO":999,"REV_AT_EPOCH":96783,"BSTAR":0.00079513,"MEAN_MOTION_DOT":1.301e-5,"MEAN_MOTION_DDOT":0},{"OBJECT_NAME":"FENGYUN 1C DEB","OBJECT_ID":"1999-025ATZ","EPOCH":"2026-03-04T10:45:39.690720","MEAN_MOTION":14.65204698,"ECCENTRICITY":0.00173367,"INCLINATION":98.8861,"RA_OF_ASC_NODE":146.1187,"ARG_OF_PERICENTER":27.113,"MEAN_ANOMALY":105.4334,"EPHEMERIS_TYPE":0,"CLASSIFICATION_TYPE":"U","NORAD_CAT_ID":30763,"ELEMENT_SET_NO":999,"REV_AT_EPOCH":98339,"BSTAR":0.0064237104,"MEAN_MOTION_DOT":0.00034772,"MEAN_MOTION_DDOT":0},{"OBJECT_NAME":"FENGYUN 1C DEB","OBJECT_ID":"1999-025AUA","EPOCH":"2026-03-04T11:06:43.473024","MEAN_MOTION":15.37013078,"ECCENTRICITY":0.00616636,"INCLINATION":98.785,"RA_OF_ASC_NODE":54.3021,"ARG_OF_PERICENTER":249.8687,"MEAN_ANOMALY":109.5912,"EPHEMERIS_TYPE":0,"CLASSIFICATION_TYPE":"U","NORAD_CAT_ID":30764,"ELEMENT_SET_NO":999,"REV_AT_EPOCH":2474,"BSTAR":0.0018945978,"MEAN_MOTION_DOT":0.00073631,"MEAN_MOTION_DDOT":0},{"OBJECT_NAME":"FENGYUN 1C DEB","OBJECT_ID":"1999-025AUB","EPOCH":"2026-03-04T15:12:48.230784","MEAN_MOTION":14.14988277,"ECCENTRICITY":0.0066251,"INCLINATION":98.7779,"RA_OF_ASC_NODE":113.3403,"ARG_OF_PERICENTER":336.8182,"MEAN_ANOMALY":178.6144,"EPHEMERIS_TYPE":0,"CLASSIFICATION_TYPE":"U","NORAD_CAT_ID":30765,"ELEMENT_SET_NO":999,"REV_AT_EPOCH":97980,"BSTAR":0.00087555,"MEAN_MOTION_DOT":1.687e-5,"MEAN_MOTION_DDOT":0},{"OBJECT_NAME":"FENGYUN 1C DEB","OBJECT_ID":"1999-025AUC","EPOCH":"2026-03-04T05:33:45.180288","MEAN_MOTION":14.09778597,"ECCENTRICITY":0.00821223,"INCLINATION":98.6765,"RA_OF_ASC_NODE":65.6675,"ARG_OF_PERICENTER":202.5389,"MEAN_ANOMALY":220.239,"EPHEMERIS_TYPE":0,"CLASSIFICATION_TYPE":"U","NORAD_CAT_ID":30766,"ELEMENT_SET_NO":999,"REV_AT_EPOCH":63945,"BSTAR":0.00080659307,"MEAN_MOTION_DOT":1.42e-5,"MEAN_MOTION_DDOT":0},{"OBJECT_NAME":"FENGYUN 1C DEB","OBJECT_ID":"1999-025AUE","EPOCH":"2026-03-04T06:18:36.553248","MEAN_MOTION":14.49353499,"ECCENTRICITY":0.00260859,"INCLINATION":98.6113,"RA_OF_ASC_NODE":159.6404,"ARG_OF_PERICENTER":207.1178,"MEAN_ANOMALY":176.1418,"EPHEMERIS_TYPE":0,"CLASSIFICATION_TYPE":"U","NORAD_CAT_ID":30768,"ELEMENT_SET_NO":999,"REV_AT_EPOCH":99051,"BSTAR":0.0029482518,"MEAN_MOTION_DOT":0.00011282,"MEAN_MOTION_DDOT":0},{"OBJECT_NAME":"FENGYUN 1C DEB","OBJECT_ID":"1999-025AUG","EPOCH":"2026-03-04T12:11:19.899744","MEAN_MOTION":14.15795946,"ECCENTRICITY":0.00146241,"INCLINATION":98.6561,"RA_OF_ASC_NODE":72.2018,"ARG_OF_PERICENTER":53.5698,"MEAN_ANOMALY":97.9264,"EPHEMERIS_TYPE":0,"CLASSIFICATION_TYPE":"U","NORAD_CAT_ID":30770,"ELEMENT_SET_NO":999,"REV_AT_EPOCH":98064,"BSTAR":0.00041356649,"MEAN_MOTION_DOT":7.71e-6,"MEAN_MOTION_DDOT":0},{"OBJECT_NAME":"FENGYUN 1C DEB","OBJECT_ID":"1999-025AUH","EPOCH":"2026-03-04T11:07:52.601664","MEAN_MOTION":14.44732548,"ECCENTRICITY":0.00248215,"INCLINATION":98.9096,"RA_OF_ASC_NODE":47.4708,"ARG_OF_PERICENTER":53.3968,"MEAN_ANOMALY":306.95,"EPHEMERIS_TYPE":0,"CLASSIFICATION_TYPE":"U","NORAD_CAT_ID":30771,"ELEMENT_SET_NO":999,"REV_AT_EPOCH":98243,"BSTAR":0.0043012205,"MEAN_MOTION_DOT":0.00014966,"MEAN_MOTION_DDOT":0},{"OBJECT_NAME":"FENGYUN 1C DEB","OBJECT_ID":"1999-025AUL","EPOCH":"2026-03-04T17:58:55.531776","MEAN_MOTION":14.33346608,"ECCENTRICITY":0.0021566,"INCLINATION":98.8301,"RA_OF_ASC_NODE":157.1435,"ARG_OF_PERICENTER":159.5771,"MEAN_ANOMALY":352.0068,"EPHEMERIS_TYPE":0,"CLASSIFICATION_TYPE":"U","NORAD_CAT_ID":30802,"ELEMENT_SET_NO":999,"REV_AT_EPOCH":98377,"BSTAR":0.0022909,"MEAN_MOTION_DOT":6.289e-5,"MEAN_MOTION_DDOT":0},{"OBJECT_NAME":"FENGYUN 1C DEB","OBJECT_ID":"1999-025AUM","EPOCH":"2026-03-04T13:58:03.254304","MEAN_MOTION":14.11708941,"ECCENTRICITY":0.0103986,"INCLINATION":99.2369,"RA_OF_ASC_NODE":104.1848,"ARG_OF_PERICENTER":333.2462,"MEAN_ANOMALY":179.7709,"EPHEMERIS_TYPE":0,"CLASSIFICATION_TYPE":"U","NORAD_CAT_ID":30803,"ELEMENT_SET_NO":999,"REV_AT_EPOCH":97153,"BSTAR":0.0015256,"MEAN_MOTION_DOT":2.876e-5,"MEAN_MOTION_DDOT":0},{"OBJECT_NAME":"FENGYUN 1C DEB","OBJECT_ID":"1999-025AUN","EPOCH":"2026-03-04T16:27:22.828032","MEAN_MOTION":14.54990969,"ECCENTRICITY":0.0183426,"INCLINATION":98.8811,"RA_OF_ASC_NODE":139.3104,"ARG_OF_PERICENTER":302.3015,"MEAN_ANOMALY":211.2163,"EPHEMERIS_TYPE":0,"CLASSIFICATION_TYPE":"U","NORAD_CAT_ID":30804,"ELEMENT_SET_NO":999,"REV_AT_EPOCH":663,"BSTAR":0.00038797,"MEAN_MOTION_DOT":2.029e-5,"MEAN_MOTION_DDOT":0},{"OBJECT_NAME":"FENGYUN 1C DEB","OBJECT_ID":"1999-025AUP","EPOCH":"2026-03-04T14:41:16.236672","MEAN_MOTION":14.03128463,"ECCENTRICITY":0.0072155,"INCLINATION":98.8096,"RA_OF_ASC_NODE":108.7092,"ARG_OF_PERICENTER":56.9102,"MEAN_ANOMALY":93.9155,"EPHEMERIS_TYPE":0,"CLASSIFICATION_TYPE":"U","NORAD_CAT_ID":30805,"ELEMENT_SET_NO":999,"REV_AT_EPOCH":97108,"BSTAR":0.00048305,"MEAN_MOTION_DOT":7.27e-6,"MEAN_MOTION_DDOT":0},{"OBJECT_NAME":"FENGYUN 1C DEB","OBJECT_ID":"1999-025AUQ","EPOCH":"2026-03-03T00:30:38.154816","MEAN_MOTION":13.70570932,"ECCENTRICITY":0.02664418,"INCLINATION":99.0298,"RA_OF_ASC_NODE":88.7996,"ARG_OF_PERICENTER":278.6764,"MEAN_ANOMALY":107.8298,"EPHEMERIS_TYPE":0,"CLASSIFICATION_TYPE":"U","NORAD_CAT_ID":30806,"ELEMENT_SET_NO":999,"REV_AT_EPOCH":94795,"BSTAR":0.00084173415,"MEAN_MOTION_DOT":9.16e-6,"MEAN_MOTION_DDOT":0},{"OBJECT_NAME":"FENGYUN 1C DEB","OBJECT_ID":"1999-025AUT","EPOCH":"2026-03-04T16:54:18.226368","MEAN_MOTION":14.29965846,"ECCENTRICITY":0.0049065,"INCLINATION":98.7825,"RA_OF_ASC_NODE":158.4583,"ARG_OF_PERICENTER":290.666,"MEAN_ANOMALY":68.9265,"EPHEMERIS_TYPE":0,"CLASSIFICATION_TYPE":"U","NORAD_CAT_ID":30809,"ELEMENT_SET_NO":999,"REV_AT_EPOCH":98258,"BSTAR":0.0018524,"MEAN_MOTION_DOT":4.795e-5,"MEAN_MOTION_DDOT":0},{"OBJECT_NAME":"FENGYUN 1C DEB","OBJECT_ID":"1999-025AUU","EPOCH":"2026-03-04T10:32:11.810976","MEAN_MOTION":14.05564268,"ECCENTRICITY":0.01815543,"INCLINATION":98.6605,"RA_OF_ASC_NODE":236.7136,"ARG_OF_PERICENTER":185.641,"MEAN_ANOMALY":174.2716,"EPHEMERIS_TYPE":0,"CLASSIFICATION_TYPE":"U","NORAD_CAT_ID":30810,"ELEMENT_SET_NO":999,"REV_AT_EPOCH":95530,"BSTAR":0.0088079216,"MEAN_MOTION_DOT":0.00016609,"MEAN_MOTION_DDOT":0}]
