FENGYUN 1C DEB          
1 30761U 99025ATX 26063.79210907  .00003616  00000+0  12032-2 0  9999
2 30761  98.9712 358.1776 0085405  72.1021 288.9454 14.36246420989195
FENGYUN 1C DEB          
1 30762U 99025ATY 26063.69966558  .00001301  00000+0  79513-3 0  9996
2 30762  98.8825  56.8811 0199461  68.2708 348.4432 13.98210421967832
FENGYUN 1C DEB          
1 30763U 99025ATZ 26063.44837605  .00034772  00000+0  64237-2 0  9994
2 30763  98.8861 146.1187 0017336  27.1130 105.4334 14.65204698983390
FENGYUN 1C DEB          
1 30764U 99025AUA 26063.46300316  .00073631  00000+0  18946-2 0  9994
2 30764  98.7850  54.3021 0061663 249.8687 109.5912 15.37013078 24749
FENGYUN 1C DEB          
1 30765U 99025AUB 26063.63389156  .00001687  00000+0  87555-3 0  9998
2 30765  98.7779 113.3403 0066251 336.8182 178.6144 14.14988277979801
FENGYUN 1C DEB          
1 30766U 99025AUC 26063.23177292  .00001420  00000+0  80659-3 0  9994
2 30766  98.6765  65.6675 0082122 202.5389 220.2390 14.09778597639456
FENGYUN 1C DEB          
1 30768U 99025AUE 26063.26292307  .00011282  00000+0  29483-2 0  9998
2 30768  98.6113 159.6404 0026085 207.1178 176.1418 14.49353499990513
FENGYUN 1C DEB          
1 30770U 99025AUG 26063.50786921  .00000771  00000+0  41357-3 0  9994
2 30770  98.6561  72.2018 0014624  53.5698  97.9264 14.15795946980642
FENGYUN 1C DEB          
1 30771U 99025AUH 26063.46380326  .00014966  00000+0  43012-2 0  9999
2 30771  98.9096  47.4708 0024821  53.3968 306.9500 14.44732548982433
FENGYUN 1C DEB          
1 30802U 99025AUL 26063.74925384  .00006289  00000+0  22909-2 0  9995
2 30802  98.8301 157.1435 0021566 159.5771 352.0068 14.33346608983771
FENGYUN 1C DEB          
1 30803U 99025AUM 26063.58198211  .00002876  00000+0  15256-2 0  9994
2 30803  99.2369 104.1848 0103986 333.2462 179.7709 14.11708941971531
FENGYUN 1C DEB          
1 30804U 99025AUN 26063.68568088  .00002029  00000+0  38797-3 0  9995
2 30804  98.8811 139.3104 0183426 302.3015 211.2163 14.54990969  6638
FENGYUN 1C DEB          
1 30805U 99025AUP 26063.61199348  .00000727  00000+0  48305-3 0  9997
2 30805  98.8096 108.7092 0072155  56.9102  93.9155 14.03128463971087
FENGYUN 1C DEB          
1 30806U 99025AUQ 26062.02127494  .00000916  00000+0  84173-3 0  9998
2 30806  99.0298  88.7996 0266441 278.6764 107.8298 13.70570932947952
FENGYUN 1C DEB          
1 30809U 99025AUT 26063.70437762  .00004795  00000+0  18524-2 0  9994
2 30809  98.7825 158.4583 0049065 290.6660  68.9265 14.29965846982580
FENGYUN 1C DEB          
1 30810U 99025AUU 26063.43902559  .00016609  00000+0  88079-2 0  9996
2 30810  98.6605 236.7136 0181554 185.6410 174.2716 14.05564268955306
